start=new Date('2022-09-06T00:00:00.000Z').valueOf();
sats=[{"OBJECT_NAME":"STARLINK-1184","EPHEMERIS_TYPE":"0","OBJECT_ID":"2020-006BG","REF_FRAME":"TEME","SEMIMAJOR_AXIS":"6925.306","DECAY_DATE":null,"RA_OF_ASC_NODE":"238.7366","TLE_LINE1":"1 45098U 20006BG  22248.35632954 -.00000706  00000-0 -28498-4 0  9999","TIME_SYSTEM":"UTC","LAUNCH_DATE":"2020-01-29","GP_ID":"211799469","CENTER_NAME":"EARTH","REV_AT_EPOCH":"14389","PERIOD":"95.591","MEAN_ANOMALY":"274.2386","NORAD_CAT_ID":"45098","MEAN_ELEMENT_THEORY":"SGP4","RCS_SIZE":"LARGE","CLASSIFICATION_TYPE":"U","COUNTRY_CODE":"US","MEAN_MOTION_DDOT":"0.0000000000000","MEAN_MOTION_DOT":"-0.00000706","MEAN_MOTION":"15.06413980","APOAPSIS":"548.068","ECCENTRICITY":"0.00012950","TLE_LINE2":"2 45098  53.0546 238.7366 0001295  85.8751 274.2386 15.06413980143891","BSTAR":"-0.00002849800000","INCLINATION":"53.0546","OBJECT_TYPE":"PAYLOAD","ARG_OF_PERICENTER":"85.8751","PERIAPSIS":"546.274","FILE":"3559490","EPOCH":"2022-09-05T08:33:06.872256","ELEMENT_SET_NO":"999","SITE":"AFETR"},{"TIME_SYSTEM":"UTC","LAUNCH_DATE":"2020-01-29","GP_ID":"211800218","CENTER_NAME":"EARTH","DECAY_DATE":null,"RA_OF_ASC_NODE":"238.6130","TLE_LINE1":"1 45099U 20006BH  22248.38950506  .00000283  00000-0  37890-4 0  9993","EPHEMERIS_TYPE":"0","OBJECT_ID":"2020-006BH","REF_FRAME":"TEME","SEMIMAJOR_AXIS":"6925.351","OBJECT_NAME":"STARLINK-1186","NORAD_CAT_ID":"45099","PERIOD":"95.592","MEAN_ANOMALY":"318.0086","REV_AT_EPOCH":"14390","INCLINATION":"53.0518","OBJECT_TYPE":"PAYLOAD","BSTAR":"0.00003789000000","TLE_LINE2":"2 45099  53.0518 238.6130 0001836  42.1044 318.0086 15.06399101143905","MEAN_MOTION_DDOT":"0.0000000000000","MEAN_MOTION_DOT":"0.00000283","ECCENTRICITY":"0.00018360","APOAPSIS":"548.488","MEAN_MOTION":"15.06399101","MEAN_ELEMENT_THEORY":"SGP4","CLASSIFICATION_TYPE":"U","RCS_SIZE":"LARGE","COUNTRY_CODE":"US","SITE":"AFETR","FILE":"3559490","PERIAPSIS":"545.945","ELEMENT_SET_NO":"999","EPOCH":"2022-09-05T09:20:53.237184","ARG_OF_PERICENTER":"42.1044"},{"MEAN_ANOMALY":"282.1555","PERIOD":"95.592","NORAD_CAT_ID":"45100","REV_AT_EPOCH":"14388","TLE_LINE1":"1 45100U 20006BJ  22248.28630217  .00001532  00000-0  12171-3 0  9991","RA_OF_ASC_NODE":"239.0726","DECAY_DATE":null,"CENTER_NAME":"EARTH","GP_ID":"211800969","LAUNCH_DATE":"2020-01-29","TIME_SYSTEM":"UTC","OBJECT_NAME":"STARLINK-1193","SEMIMAJOR_AXIS":"6925.358","OBJECT_ID":"2020-006BJ","REF_FRAME":"TEME","EPHEMERIS_TYPE":"0","ELEMENT_SET_NO":"999","EPOCH":"2022-09-05T06:52:16.507488","FILE":"3559490","PERIAPSIS":"546.220","SITE":"AFETR","ARG_OF_PERICENTER":"77.9596","BSTAR":"0.00012171000000","TLE_LINE2":"2 45100  53.0535 239.0726 0001448  77.9596 282.1555 15.06396974143884","OBJECT_TYPE":"PAYLOAD","INCLINATION":"53.0535","COUNTRY_CODE":"US","RCS_SIZE":"LARGE","CLASSIFICATION_TYPE":"U","MEAN_ELEMENT_THEORY":"SGP4","APOAPSIS":"548.226","ECCENTRICITY":"0.00014480","MEAN_MOTION":"15.06396974","MEAN_MOTION_DOT":"0.00001532","MEAN_MOTION_DDOT":"0.0000000000000"},{"PERIOD":"95.592","MEAN_ANOMALY":"288.6164","NORAD_CAT_ID":"45101","REV_AT_EPOCH":"14388","DECAY_DATE":null,"TLE_LINE1":"1 45101U 20006BK  22248.28166775 -.00000418  00000-0 -91451-5 0  9999","RA_OF_ASC_NODE":"239.0628","LAUNCH_DATE":"2020-01-29","TIME_SYSTEM":"UTC","CENTER_NAME":"EARTH","GP_ID":"211801211","OBJECT_NAME":"STARLINK-1194","REF_FRAME":"TEME","OBJECT_ID":"2020-006BK","EPHEMERIS_TYPE":"0","SEMIMAJOR_AXIS":"6925.321","PERIAPSIS":"546.086","FILE":"3559490","ELEMENT_SET_NO":"999","EPOCH":"2022-09-05T06:45:36.093600","SITE":"AFETR","ARG_OF_PERICENTER":"71.4997","BSTAR":"-0.00000914510000","TLE_LINE2":"2 45101  53.0543 239.0628 0001588  71.4997 288.6164 15.06408988143880","OBJECT_TYPE":"PAYLOAD","INCLINATION":"53.0543","CLASSIFICATION_TYPE":"U","RCS_SIZE":"LARGE","MEAN_ELEMENT_THEORY":"SGP4","COUNTRY_CODE":"US","MEAN_MOTION_DOT":"-0.00000418","MEAN_MOTION_DDOT":"0.0000000000000","APOAPSIS":"548.286","ECCENTRICITY":"0.00015880","MEAN_MOTION":"15.06408988"},{"MEAN_MOTION_DOT":"-0.00000088","MEAN_MOTION_DDOT":"0.0000000000000","APOAPSIS":"548.204","ECCENTRICITY":"0.00014450","MEAN_MOTION":"15.06403229","RCS_SIZE":"LARGE","CLASSIFICATION_TYPE":"U","MEAN_ELEMENT_THEORY":"SGP4","COUNTRY_CODE":"US","OBJECT_TYPE":"PAYLOAD","INCLINATION":"53.0545","BSTAR":"0.00001300300000","TLE_LINE2":"2 45102  53.0545 238.6817 0001445  79.8444 280.2708 15.06403229143895","ARG_OF_PERICENTER":"79.8444","SITE":"AFETR","FILE":"3559490","PERIAPSIS":"546.203","EPOCH":"2022-09-05T08:54:21.000096","ELEMENT_SET_NO":"999","REF_FRAME":"TEME","OBJECT_ID":"2020-006BL","EPHEMERIS_TYPE":"0","SEMIMAJOR_AXIS":"6925.339","OBJECT_NAME":"STARLINK-1195","LAUNCH_DATE":"2020-01-29","TIME_SYSTEM":"UTC","CENTER_NAME":"EARTH","GP_ID":"211799969","DECAY_DATE":null,"TLE_LINE1":"1 45102U 20006BL  22248.37107639 -.00000088  00000-0  13003-4 0  9992","RA_OF_ASC_NODE":"238.6817","REV_AT_EPOCH":"14389","NORAD_CAT_ID":"45102","PERIOD":"95.592","MEAN_ANOMALY":"280.2708"},{"INCLINATION":"53.0513","OBJECT_TYPE":"PAYLOAD","BSTAR":"0.00026573000000","TLE_LINE2":"2 45103  53.0513 238.5279 0001373  77.9555 282.1588 15.06417312143901","MEAN_MOTION_DDOT":"0.0000000000000","MEAN_MOTION_DOT":"0.00003681","MEAN_MOTION":"15.06417312","APOAPSIS":"548.111","ECCENTRICITY":"0.00013730","MEAN_ELEMENT_THEORY":"SGP4","RCS_SIZE":"LARGE","CLASSIFICATION_TYPE":"U","COUNTRY_CODE":"US","SITE":"AFETR","PERIAPSIS":"546.210","FILE":"3559490","ELEMENT_SET_NO":"999","EPOCH":"2022-09-05T09:40:45.332544","ARG_OF_PERICENTER":"77.9555","TIME_SYSTEM":"UTC","LAUNCH_DATE":"2020-01-29","GP_ID":"211799719","CENTER_NAME":"EARTH","DECAY_DATE":null,"RA_OF_ASC_NODE":"238.5279","TLE_LINE1":"1 45103U 20006BM  22248.40330246  .00003681  00000-0  26573-3 0  9995","EPHEMERIS_TYPE":"0","REF_FRAME":"TEME","OBJECT_ID":"2020-006BM","SEMIMAJOR_AXIS":"6925.295","OBJECT_NAME":"STARLINK-1196","NORAD_CAT_ID":"45103","PERIOD":"95.591","MEAN_ANOMALY":"282.1588","REV_AT_EPOCH":"14390"},{"SEMIMAJOR_AXIS":"6925.322","EPHEMERIS_TYPE":"0","OBJECT_ID":"2020-012A","REF_FRAME":"TEME","OBJECT_NAME":"STARLINK-1138","GP_ID":"211831009","CENTER_NAME":"EARTH","LAUNCH_DATE":"2020-02-17","TIME_SYSTEM":"UTC","RA_OF_ASC_NODE":"36.5269","TLE_LINE1":"1 45178U 20012A   22248.85392512  .00001334  00000-0  10842-3 0  9992","DECAY_DATE":null,"REV_AT_EPOCH":"14172","NORAD_CAT_ID":"45178","MEAN_ANOMALY":"260.1810","PERIOD":"95.592","ECCENTRICITY":"0.00015120","APOAPSIS":"548.234","MEAN_MOTION":"15.06408669","MEAN_MOTION_DDOT":"0.0000000000000","MEAN_MOTION_DOT":"0.00001334","COUNTRY_CODE":"US","MEAN_ELEMENT_THEORY":"SGP4","CLASSIFICATION_TYPE":"U","RCS_SIZE":"LARGE","INCLINATION":"53.0565","OBJECT_TYPE":"PAYLOAD","BSTAR":"0.00010842000000","TLE_LINE2":"2 45178  53.0565  36.5269 0001512  99.9350 260.1810 15.06408669141724","ARG_OF_PERICENTER":"99.9350","SITE":"AFETR","ELEMENT_SET_NO":"999","EPOCH":"2022-09-05T20:29:39.130368","PERIAPSIS":"546.140","FILE":"3559723"},{"FILE":"3559723","PERIAPSIS":"546.219","ELEMENT_SET_NO":"999","EPOCH":"2022-09-05T18:58:03.940032","SITE":"AFETR","ARG_OF_PERICENTER":"79.5078","TLE_LINE2":"2 45179  53.0557  36.7914 0001430  79.5078 280.6072 15.06401392141773","BSTAR":"-0.00005700300000","OBJECT_TYPE":"PAYLOAD","INCLINATION":"53.0557","RCS_SIZE":"LARGE","CLASSIFICATION_TYPE":"U","MEAN_ELEMENT_THEORY":"SGP4","COUNTRY_CODE":"US","MEAN_MOTION_DOT":"-0.00001130","MEAN_MOTION_DDOT":"0.0000000000000","APOAPSIS":"548.200","ECCENTRICITY":"0.00014300","MEAN_MOTION":"15.06401392","PERIOD":"95.592","MEAN_ANOMALY":"280.6072","NORAD_CAT_ID":"45179","REV_AT_EPOCH":"14177","DECAY_DATE":null,"TLE_LINE1":"1 45179U 20012B   22248.79032338 -.00001130  00000-0 -57003-4 0  9990","RA_OF_ASC_NODE":"36.7914","TIME_SYSTEM":"UTC","LAUNCH_DATE":"2020-02-17","CENTER_NAME":"EARTH","GP_ID":"211831261","OBJECT_NAME":"STARLINK-1143","REF_FRAME":"TEME","OBJECT_ID":"2020-012B","EPHEMERIS_TYPE":"0","SEMIMAJOR_AXIS":"6925.344"},{"OBJECT_NAME":"STARLINK-1192","EPHEMERIS_TYPE":"0","OBJECT_ID":"2020-012C","REF_FRAME":"TEME","SEMIMAJOR_AXIS":"6909.955","DECAY_DATE":null,"RA_OF_ASC_NODE":"33.5836","TLE_LINE1":"1 45180U 20012C   22248.71119478  .00019689  00000-0  11656-2 0  9993","TIME_SYSTEM":"UTC","LAUNCH_DATE":"2020-02-17","GP_ID":"211831508","CENTER_NAME":"EARTH","REV_AT_EPOCH":"14181","PERIOD":"95.274","MEAN_ANOMALY":"227.1077","NORAD_CAT_ID":"45180","MEAN_ELEMENT_THEORY":"SGP4","CLASSIFICATION_TYPE":"U","RCS_SIZE":"LARGE","COUNTRY_CODE":"US","MEAN_MOTION_DDOT":"0.0000000000000","MEAN_MOTION_DOT":"0.00019689","MEAN_MOTION":"15.11436720","APOAPSIS":"532.147","ECCENTRICITY":"0.00004740","BSTAR":"0.00116560000000","TLE_LINE2":"2 45180  53.0525  33.5836 0000474 132.9954 227.1077 15.11436720141817","INCLINATION":"53.0525","OBJECT_TYPE":"PAYLOAD","ARG_OF_PERICENTER":"132.9954","FILE":"3559723","PERIAPSIS":"531.492","ELEMENT_SET_NO":"999","EPOCH":"2022-09-05T17:04:07.228992","SITE":"AFETR"},{"ELEMENT_SET_NO":"999","EPOCH":"2022-09-05T20:13:44.196960","FILE":"3559723","PERIAPSIS":"546.236","SITE":"AFETR","ARG_OF_PERICENTER":"85.8448","TLE_LINE2":"2 45181  53.0553  36.5770 0001378  85.8448 274.2698 15.06407692141785","BSTAR":"0.00013028000000","INCLINATION":"53.0553","OBJECT_TYPE":"PAYLOAD","COUNTRY_CODE":"US","MEAN_ELEMENT_THEORY":"SGP4","RCS_SIZE":"LARGE","CLASSIFICATION_TYPE":"U","MEAN_MOTION":"15.06407692","APOAPSIS":"548.144","ECCENTRICITY":"0.00013780","MEAN_MOTION_DDOT":"0.0000000000000","MEAN_MOTION_DOT":"0.00001660","MEAN_ANOMALY":"274.2698","PERIOD":"95.592","NORAD_CAT_ID":"45181","REV_AT_EPOCH":"14178","RA_OF_ASC_NODE":"36.5770","TLE_LINE1":"1 45181U 20012D   22248.84287265  .00001660  00000-0  13028-3 0  9994","DECAY_DATE":null,"GP_ID":"211830759","CENTER_NAME":"EARTH","LAUNCH_DATE":"2020-02-17","TIME_SYSTEM":"UTC","OBJECT_NAME":"STARLINK-1200","SEMIMAJOR_AXIS":"6925.325","EPHEMERIS_TYPE":"0","OBJECT_ID":"2020-012D","REF_FRAME":"TEME"}];
